STARLINK-37938          
1 69568U 26135Y   26194.25003472 -.00040638  00000+0 -74888-3 0  9996
2 69568  97.2837 222.6425 0001213  97.1188  95.4555 15.49208864  5494
STARLINK-37924          
1 69569U 26135Z   26194.25003472 -.02416466  00000+0 -43013-1 0  9999
2 69569  97.2841 222.7375 0001146  89.5734 317.8082 15.53910818  5504
SHIJIAN-31 (SJ-31)      
1 69570U 26136A   26193.98560255 -.00000460  00000+0  00000+0 0  9995
2 69570  63.4865 353.4225 6940140 171.8353 212.2967  1.92227794   582
CZ-3B R/B               
1 69571U 26136B   26193.79498036  .00377764 -15616-6  55613-3 0  9996
2 69571  63.4312 350.9647 7259124 171.4997 216.3948  2.37752219   620
GUOWANG OBJECT A        
1 69572U 26137A   26193.89246529 -.00000143  00000+0  24502-5 0  9990
2 69572  49.9997 153.0717 0012495 311.3863  48.5960 13.89812741  3591
GUOWANG OBJECT B        
1 69573U 26137B   26190.65385973 -.00000214  00000+0 -55136-4 0  9995
2 69573  50.0016 165.9303 0011859 298.8434  61.1273 13.89803849  3155
GUOWANG OBJECT C        
1 69574U 26137C   26193.88847439 -.00000180  00000+0 -27480-4 0  9997
2 69574  49.9967 153.0345 0011896 311.4365  48.5511 13.89814739  3602
GUOWANG OBJECT D        
1 69575U 26137D   26190.65162700 -.00000168  00000+0 -17667-4 0  9993
2 69575  49.9953 165.9027 0011086 299.2996  60.6794 13.89827781  3150
GUOWANG OBJECT E        
1 69576U 26137E   26193.02348711 -.00000204  00000+0 -46563-4 0  9994
2 69576  50.0038 156.4799 0011224 310.0552  49.9361 13.89824941  3484
GUOWANG OBJECT F        
1 69577U 26137F   26192.30363530 -.00000204  00000+0 -46815-4 0  9991
2 69577  50.0028 159.3340 0010834 307.7048  52.2867 13.89809360  3382
GUOWANG OBJECT G        
1 69578U 26137G   26192.30278168 -.00000142  00000+0  35461-5 0  9990
2 69578  49.9952 159.3085 0010806 307.5258  52.4657 13.89795025  3383
GUOWANG OBJECT H        
1 69579U 26137H   26191.00768142 -.00000175  00000+0 -23862-4 0  9991
2 69579  50.0012 164.4679 0010249 306.3680  53.6272 13.89776278  3203
GUOWANG OBJECT J        
1 69580U 26137J   26178.27848690  .00000022  00000+0  13174-3 0  9997
2 69580  49.9961 215.0979 0011832 257.3150 102.6427 13.91997107  1436
CZ-12 R/B               
1 69581U 26137K   26194.27991700 -.00000112  00000+0  22245-4 0  9998
2 69581  49.9888 147.7098 0077440 203.1403 156.6010 14.11694334  3691
CENTISPACE-1 GROUP 05 O*
1 69582U 26138A   26193.98796889 -.00000065  00000+0  44881-4 0  9995
2 69582  55.1388 185.9028 0011274 339.5645  20.4877 14.15470900  3670
CENTISPACE-1 GROUP 05 O*
1 69583U 26138B   26193.49037940 -.00000178  00000+0 -12217-4 0  9992
2 69583  55.1381 187.7094 0010208 338.8919  21.1632 14.15650579  3601
CENTISPACE-1 GROUP 05 O*
1 69584U 26138C   26193.48886013 -.00000223  00000+0 -35132-4 0  9997
2 69584  55.1387 187.7101 0010131 340.4978  19.5607 14.15734235  3601
CENTISPACE-1 GROUP 05 O*
1 69585U 26138D   26193.97990538 -.00000314  00000+0 -81047-4 0  9997
2 69585  55.1385 185.8593 0009789 340.9309  19.1298 14.15919675  3676
CENTISPACE-1 GROUP 05 O*
1 69586U 26138E   26193.97869604 -.00000314  00000+0 -81159-4 0  9991
2 69586  55.1377 185.8600 0009500 341.3569  18.7056 14.15986721  3674
CENTISPACE-1 GROUP 05 O*
1 69587U 26138F   26193.97992150 -.00000292  00000+0 -69905-4 0  9995
2 69587  55.1382 185.8680 0009436 345.5018  14.5684 14.15909909  3676
CENTISPACE-1 GROUP 05 O*
1 69588U 26138G   26193.41218649 -.00000375  00000+0 -11167-3 0  9997
2 69588  55.1383 187.9363 0008629 344.0005  16.0696 14.16073930  3590
SPACEMOBILE-008         
1 69589U 26139A   26194.23693320 -.00000117  00000+0  10367-4 0  9998
2 69589  52.9945 144.2981 0004990  51.8250 308.3190 15.12800584  3927
SPACEMOBILE-009         
1 69590U 26139B   26194.30482759 -.00000104  00000+0  11165-4 0  9993
2 69590  52.9936 144.0042 0005238  47.8586 312.2849 15.12693917  3934
SPACEMOBILE-010         
1 69591U 26139C   26194.24165291 -.00000028  00000+0  15486-4 0  9991
2 69591  52.9943 144.3248 0005156  39.4417 320.6949 15.12525408  3936
KUIPER-00423            
1 69592U 26140A   26194.23394405  .00016542  00000+0  43554-3 0  9997
2 69592  51.8810 272.5520 0013392 262.0186  97.9282 15.38589054  5248
KUIPER-00428            
1 69593U 26140B   26193.62020925  .00012306  00000+0  34550-3 0  9993
2 69593  51.8810 275.9284 0008045  21.5732 338.5592 15.36916079  5143
KUIPER-00481            
1 69594U 26140C   26194.24441100  .00015722  00000+0  42312-3 0  9995
2 69594  51.8770 272.6133 0011043 272.0180  87.9542 15.37981514  5246
KUIPER-00490            
1 69595U 26140D   26194.18912357  .00013576  00000+0  36791-3 0  9995
2 69595  51.8781 272.9869 0006592 334.3592  25.7068 15.37929787  5236
KUIPER-00493            
1 69596U 26140E   26193.62503321  .00012643  00000+0  35783-3 0  9995
2 69596  51.8809 275.9590 0007699  28.7780 331.3630 15.36640125  5140
KUIPER-00496            
1 69597U 26140F   26194.23149376  .00012305  00000+0  37542-3 0  9990
2 69597  51.8783 273.2628 0010558  45.3816 314.8029 15.34275470  5231
