OBJECT_NAME,OBJECT_ID,EPOCH,MEAN_MOTION,ECCENTRICITY,INCLINATION,RA_OF_ASC_NODE,ARG_OF_PERICENTER,MEAN_ANOMALY,EPHEMERIS_TYPE,CLASSIFICATION_TYPE,NORAD_CAT_ID,ELEMENT_SET_NO,REV_AT_EPOCH,BSTAR,MEAN_MOTION_DOT,MEAN_MOTION_DDOT
STARLINK-37938,2026-135Y,2026-07-13T06:00:02.999808,15.49208864,.0001213,97.2837,222.6425,97.1188,95.4555,0,U,69568,999,549,-.74888003E-3,-.40638E-3,0
STARLINK-37924,2026-135Z,2026-07-13T06:00:02.999808,15.53910818,.00011461,97.2841,222.7375,89.5734,317.8082,0,U,69569,999,550,-.43013401E-1,-.2416466E-1,0
SHIJIAN-31 (SJ-31),2026-136A,2026-07-12T23:39:16.060320,1.92227794,.69401401,63.4865,353.4225,171.8353,212.2967,0,U,69570,999,58,0,-.46E-5,0
CZ-3B R/B,2026-136B,2026-07-12T19:04:46.303104,2.37752219,.72591248,63.4312,350.9647,171.4997,216.3948,0,U,69571,999,62,.55612555E-3,.377764E-2,-.156161E-6
GUOWANG OBJECT A,2026-137A,2026-07-12T21:25:09.001056,13.89812741,.0012495,49.9997,153.0717,311.3863,48.5960,0,U,69572,999,359,.2450247E-5,-.143E-5,0
GUOWANG OBJECT B,2026-137B,2026-07-09T15:41:33.480672,13.89803849,.00118595,50.0016,165.9303,298.8434,61.1273,0,U,69573,999,315,-.55136387E-4,-.214E-5,0
GUOWANG OBJECT C,2026-137C,2026-07-12T21:19:24.187296,13.89814739,.0011896,49.9967,153.0345,311.4365,48.5511,0,U,69574,999,360,-.2748E-4,-.18E-5,0
GUOWANG OBJECT D,2026-137D,2026-07-09T15:38:20.572800,13.89827781,.00110869,49.9953,165.9027,299.2996,60.6794,0,U,69575,999,315,-.17667174E-4,-.168E-5,0
GUOWANG OBJECT E,2026-137E,2026-07-12T00:33:49.286304,13.89824941,.00112248,50.0038,156.4799,310.0552,49.9361,0,U,69576,999,348,-.46562868E-4,-.204E-5,0
GUOWANG OBJECT F,2026-137F,2026-07-11T07:17:14.089920,13.89809360,.0010834,50.0028,159.3340,307.7048,52.2867,0,U,69577,999,338,-.46815E-4,-.204E-5,0
GUOWANG OBJECT G,2026-137G,2026-07-11T07:16:00.337152,13.89795025,.0010806,49.9952,159.3085,307.5258,52.4657,0,U,69578,999,338,.35461E-5,-.142E-5,0
GUOWANG OBJECT H,2026-137H,2026-07-10T00:11:03.674688,13.89776278,.00102494,50.0012,164.4679,306.3680,53.6272,0,U,69579,999,320,-.23862216E-4,-.175E-5,0
GUOWANG OBJECT J,2026-137J,2026-06-27T06:41:01.268160,13.91997107,.0011832,49.9961,215.0979,257.3150,102.6427,0,U,69580,999,143,.13174E-3,.22E-6,0
CZ-12 R/B,2026-137K,2026-07-13T06:43:04.828800,14.11694334,.00774409,49.9888,147.7098,203.1403,156.6010,0,U,69581,999,369,.22244598E-4,-.112E-5,0
CENTISPACE-1 GROUP 05 OBJECT A,2026-138A,2026-07-12T23:42:40.512096,14.15470900,.00112743,55.1388,185.9028,339.5645,20.4877,0,U,69582,999,367,.44880626E-4,-.65E-6,0
CENTISPACE-1 GROUP 05 OBJECT B,2026-138B,2026-07-12T11:46:08.780160,14.15650579,.00102089,55.1381,187.7094,338.8919,21.1632,0,U,69583,999,360,-.12216629E-4,-.178E-5,0
CENTISPACE-1 GROUP 05 OBJECT C,2026-138C,2026-07-12T11:43:57.515232,14.15734235,.00101315,55.1387,187.7101,340.4978,19.5607,0,U,69584,999,360,-.35131597E-4,-.223E-5,0
CENTISPACE-1 GROUP 05 OBJECT D,2026-138D,2026-07-12T23:31:03.824832,14.15919675,.00097899,55.1385,185.8593,340.9309,19.1298,0,U,69585,999,367,-.81047183E-4,-.314E-5,0
CENTISPACE-1 GROUP 05 OBJECT E,2026-138E,2026-07-12T23:29:19.337856,14.15986721,.00095001,55.1377,185.8600,341.3569,18.7056,0,U,69586,999,367,-.81159363E-4,-.314E-5,0
CENTISPACE-1 GROUP 05 OBJECT F,2026-138F,2026-07-12T23:31:05.217600,14.15909909,.00094364,55.1382,185.8680,345.5018,14.5684,0,U,69587,999,367,-.69904551E-4,-.292E-5,0
CENTISPACE-1 GROUP 05 OBJECT G,2026-138G,2026-07-12T09:53:32.912736,14.16073930,.00086294,55.1383,187.9363,344.0005,16.0696,0,U,69588,999,359,-.11166998E-3,-.375E-5,0
SPACEMOBILE-008,2026-139A,2026-07-13T05:41:11.028480,15.12800584,.00049901,52.9945,144.2981,51.8250,308.3190,0,U,69589,999,392,.10367403E-4,-.117E-5,0
SPACEMOBILE-009,2026-139B,2026-07-13T07:18:57.103776,15.12693917,.00052387,52.9936,144.0042,47.8586,312.2849,0,U,69590,999,393,.1116461E-4,-.104E-5,0
SPACEMOBILE-010,2026-139C,2026-07-13T05:47:58.811424,15.12525408,.00051566,52.9943,144.3248,39.4417,320.6949,0,U,69591,999,393,.15486107E-4,-.28E-6,0
KUIPER-00423,2026-140A,2026-07-13T05:36:52.765920,15.38589054,.00133928,51.8810,272.5520,262.0186,97.9282,0,U,69592,999,524,.43553803E-3,.16542E-3,0
KUIPER-00428,2026-140B,2026-07-12T14:53:06.079200,15.36916079,.00080459,51.8810,275.9284,21.5732,338.5592,0,U,69593,999,514,.34550388E-3,.12306E-3,0
KUIPER-00481,2026-140C,2026-07-13T05:51:57.110400,15.37981514,.00110432,51.8770,272.6133,272.0180,87.9542,0,U,69594,999,524,.42311675E-3,.15722E-3,0
KUIPER-00490,2026-140D,2026-07-13T04:32:20.276448,15.37929787,.0006592,51.8781,272.9869,334.3592,25.7068,0,U,69595,999,523,.36791024E-3,.13576E-3,0
KUIPER-00493,2026-140E,2026-07-12T15:00:02.869344,15.36640125,.00076998,51.8809,275.9590,28.7780,331.3630,0,U,69596,999,514,.35783288E-3,.12643E-3,0
KUIPER-00496,2026-140F,2026-07-13T05:33:21.060864,15.34275470,.00105587,51.8783,273.2628,45.3816,314.8029,0,U,69597,999,523,.37542084E-3,.12305E-3,0
